{
  "type": "FeatureCollection",
  "features": [
    {
      "type": "Feature",
      "properties": {
        "norad_id": 15936,
        "name": "OSCAR 24",
        "group": "nnss",
        "lat": NaN,
        "lon": NaN,
        "alt_km": NaN,
        "timestamp": "2025-12-01T03:08:34.196369+00:00",
        "meta": {
          "OBJECT_NAME": "OSCAR 24",
          "OBJECT_ID": "1985-066B",
          "EPOCH": "2025-11-30T20:09:19.945152",
          "MEAN_MOTION": 13.35932918,
          "ECCENTRICITY": 0.017033,
          "INCLINATION": 90.1784,
          "RA_OF_ASC_NODE": 92.095,
          "ARG_OF_PERICENTER": 123.5619,
          "MEAN_ANOMALY": 46.7565,
          "EPHEMERIS_TYPE": 0,
          "CLASSIFICATION_TYPE": "U",
          "NORAD_CAT_ID": 15936,
          "ELEMENT_SET_NO": 999,
          "REV_AT_EPOCH": 96484,
          "BSTAR": 0.00011371,
          "MEAN_MOTION_DOT": 7.3e-07,
          "MEAN_MOTION_DDOT": 0
        }
      },
      "geometry": {
        "type": "Point",
        "coordinates": [
          NaN,
          NaN
        ]
      }
    },
    {
      "type": "Feature",
      "properties": {
        "norad_id": 17070,
        "name": "POLAR BEAR",
        "group": "nnss",
        "lat": NaN,
        "lon": NaN,
        "alt_km": NaN,
        "timestamp": "2025-12-01T03:08:34.196375+00:00",
        "meta": {
          "OBJECT_NAME": "POLAR BEAR",
          "OBJECT_ID": "1986-088A",
          "EPOCH": "2025-11-30T19:36:21.773088",
          "MEAN_MOTION": 13.75246998,
          "ECCENTRICITY": 0.0040054,
          "INCLINATION": 89.6182,
          "RA_OF_ASC_NODE": 184.2503,
          "ARG_OF_PERICENTER": 154.0542,
          "MEAN_ANOMALY": 217.1156,
          "EPHEMERIS_TYPE": 0,
          "CLASSIFICATION_TYPE": "U",
          "NORAD_CAT_ID": 17070,
          "ELEMENT_SET_NO": 999,
          "REV_AT_EPOCH": 95815,
          "BSTAR": 0.00010881,
          "MEAN_MOTION_DOT": 1.16e-06,
          "MEAN_MOTION_DDOT": 0
        }
      },
      "geometry": {
        "type": "Point",
        "coordinates": [
          NaN,
          NaN
        ]
      }
    },
    {
      "type": "Feature",
      "properties": {
        "norad_id": 18361,
        "name": "OSCAR 27",
        "group": "nnss",
        "lat": NaN,
        "lon": NaN,
        "alt_km": NaN,
        "timestamp": "2025-12-01T03:08:34.196380+00:00",
        "meta": {
          "OBJECT_NAME": "OSCAR 27",
          "OBJECT_ID": "1987-080A",
          "EPOCH": "2025-11-30T18:57:35.757216",
          "MEAN_MOTION": 13.44902745,
          "ECCENTRICITY": 0.0102218,
          "INCLINATION": 90.3742,
          "RA_OF_ASC_NODE": 78.8252,
          "ARG_OF_PERICENTER": 258.5009,
          "MEAN_ANOMALY": 100.4647,
          "EPHEMERIS_TYPE": 0,
          "CLASSIFICATION_TYPE": "U",
          "NORAD_CAT_ID": 18361,
          "ELEMENT_SET_NO": 999,
          "REV_AT_EPOCH": 87396,
          "BSTAR": 0.00016548,
          "MEAN_MOTION_DOT": 1.07e-06,
          "MEAN_MOTION_DDOT": 0
        }
      },
      "geometry": {
        "type": "Point",
        "coordinates": [
          NaN,
          NaN
        ]
      }
    },
    {
      "type": "Feature",
      "properties": {
        "norad_id": 18362,
        "name": "OSCAR 29",
        "group": "nnss",
        "lat": NaN,
        "lon": NaN,
        "alt_km": NaN,
        "timestamp": "2025-12-01T03:08:34.196386+00:00",
        "meta": {
          "OBJECT_NAME": "OSCAR 29",
          "OBJECT_ID": "1987-080B",
          "EPOCH": "2025-11-30T19:23:19.471200",
          "MEAN_MOTION": 13.44445,
          "ECCENTRICITY": 0.010364,
          "INCLINATION": 90.3755,
          "RA_OF_ASC_NODE": 79.2838,
          "ARG_OF_PERICENTER": 281.9002,
          "MEAN_ANOMALY": 195.3641,
          "EPHEMERIS_TYPE": 0,
          "CLASSIFICATION_TYPE": "U",
          "NORAD_CAT_ID": 18362,
          "ELEMENT_SET_NO": 999,
          "REV_AT_EPOCH": 87349,
          "BSTAR": 0.00014545,
          "MEAN_MOTION_DOT": 9.4e-07,
          "MEAN_MOTION_DDOT": 0
        }
      },
      "geometry": {
        "type": "Point",
        "coordinates": [
          NaN,
          NaN
        ]
      }
    },
    {
      "type": "Feature",
      "properties": {
        "norad_id": 19070,
        "name": "OSCAR 23",
        "group": "nnss",
        "lat": NaN,
        "lon": NaN,
        "alt_km": NaN,
        "timestamp": "2025-12-01T03:08:34.196392+00:00",
        "meta": {
          "OBJECT_NAME": "OSCAR 23",
          "OBJECT_ID": "1988-033A",
          "EPOCH": "2025-11-30T20:50:00.118752",
          "MEAN_MOTION": 13.27784385,
          "ECCENTRICITY": 0.0188559,
          "INCLINATION": 90.3227,
          "RA_OF_ASC_NODE": 16.024,
          "ARG_OF_PERICENTER": 212.9941,
          "MEAN_ANOMALY": 321.8943,
          "EPHEMERIS_TYPE": 0,
          "CLASSIFICATION_TYPE": "U",
          "NORAD_CAT_ID": 19070,
          "ELEMENT_SET_NO": 999,
          "REV_AT_EPOCH": 82095,
          "BSTAR": 0.00016101,
          "MEAN_MOTION_DOT": 8.7e-07,
          "MEAN_MOTION_DDOT": 0
        }
      },
      "geometry": {
        "type": "Point",
        "coordinates": [
          NaN,
          NaN
        ]
      }
    },
    {
      "type": "Feature",
      "properties": {
        "norad_id": 19071,
        "name": "OSCAR 32",
        "group": "nnss",
        "lat": NaN,
        "lon": NaN,
        "alt_km": NaN,
        "timestamp": "2025-12-01T03:08:34.196397+00:00",
        "meta": {
          "OBJECT_NAME": "OSCAR 32",
          "OBJECT_ID": "1988-033B",
          "EPOCH": "2025-11-30T16:25:22.351008",
          "MEAN_MOTION": 13.27951389,
          "ECCENTRICITY": 0.0187358,
          "INCLINATION": 90.3232,
          "RA_OF_ASC_NODE": 16.1496,
          "ARG_OF_PERICENTER": 200.3285,
          "MEAN_ANOMALY": 279.7179,
          "EPHEMERIS_TYPE": 0,
          "CLASSIFICATION_TYPE": "U",
          "NORAD_CAT_ID": 19071,
          "ELEMENT_SET_NO": 999,
          "REV_AT_EPOCH": 82105,
          "BSTAR": 0.00013916,
          "MEAN_MOTION_DOT": 7.7e-07,
          "MEAN_MOTION_DDOT": 0
        }
      },
      "geometry": {
        "type": "Point",
        "coordinates": [
          NaN,
          NaN
        ]
      }
    },
    {
      "type": "Feature",
      "properties": {
        "norad_id": 19223,
        "name": "NOVA 2",
        "group": "nnss",
        "lat": NaN,
        "lon": NaN,
        "alt_km": NaN,
        "timestamp": "2025-12-01T03:08:34.196403+00:00",
        "meta": {
          "OBJECT_NAME": "NOVA 2",
          "OBJECT_ID": "1988-052A",
          "EPOCH": "2025-11-30T17:56:31.650720",
          "MEAN_MOTION": 13.22933672,
          "ECCENTRICITY": 0.0031525,
          "INCLINATION": 89.9872,
          "RA_OF_ASC_NODE": 78.2871,
          "ARG_OF_PERICENTER": 49.1482,
          "MEAN_ANOMALY": 66.8979,
          "EPHEMERIS_TYPE": 0,
          "CLASSIFICATION_TYPE": "U",
          "NORAD_CAT_ID": 19223,
          "ELEMENT_SET_NO": 999,
          "REV_AT_EPOCH": 80789,
          "BSTAR": 6.9342e-05,
          "MEAN_MOTION_DOT": 3.8e-07,
          "MEAN_MOTION_DDOT": 0
        }
      },
      "geometry": {
        "type": "Point",
        "coordinates": [
          NaN,
          NaN
        ]
      }
    },
    {
      "type": "Feature",
      "properties": {
        "norad_id": 19419,
        "name": "OSCAR 25",
        "group": "nnss",
        "lat": NaN,
        "lon": NaN,
        "alt_km": NaN,
        "timestamp": "2025-12-01T03:08:34.196409+00:00",
        "meta": {
          "OBJECT_NAME": "OSCAR 25",
          "OBJECT_ID": "1988-074A",
          "EPOCH": "2025-11-30T16:26:56.303232",
          "MEAN_MOTION": 13.42619717,
          "ECCENTRICITY": 0.0094198,
          "INCLINATION": 90.036,
          "RA_OF_ASC_NODE": 20.2039,
          "ARG_OF_PERICENTER": 280.871,
          "MEAN_ANOMALY": 202.0885,
          "EPHEMERIS_TYPE": 0,
          "CLASSIFICATION_TYPE": "U",
          "NORAD_CAT_ID": 19419,
          "ELEMENT_SET_NO": 999,
          "REV_AT_EPOCH": 82478,
          "BSTAR": 0.00018915,
          "MEAN_MOTION_DOT": 1.18e-06,
          "MEAN_MOTION_DDOT": 0
        }
      },
      "geometry": {
        "type": "Point",
        "coordinates": [
          NaN,
          NaN
        ]
      }
    },
    {
      "type": "Feature",
      "properties": {
        "norad_id": 19420,
        "name": "OSCAR 31",
        "group": "nnss",
        "lat": NaN,
        "lon": NaN,
        "alt_km": NaN,
        "timestamp": "2025-12-01T03:08:34.196414+00:00",
        "meta": {
          "OBJECT_NAME": "OSCAR 31",
          "OBJECT_ID": "1988-074B",
          "EPOCH": "2025-11-30T20:51:22.699008",
          "MEAN_MOTION": 13.42581538,
          "ECCENTRICITY": 0.0092411,
          "INCLINATION": 90.0376,
          "RA_OF_ASC_NODE": 20.5526,
          "ARG_OF_PERICENTER": 274.4485,
          "MEAN_ANOMALY": 261.0047,
          "EPHEMERIS_TYPE": 0,
          "CLASSIFICATION_TYPE": "U",
          "NORAD_CAT_ID": 19420,
          "ELEMENT_SET_NO": 999,
          "REV_AT_EPOCH": 82491,
          "BSTAR": 0.00014514,
          "MEAN_MOTION_DOT": 9.2e-07,
          "MEAN_MOTION_DDOT": 0
        }
      },
      "geometry": {
        "type": "Point",
        "coordinates": [
          NaN,
          NaN
        ]
      }
    }
  ]
}